{"type": "FeatureCollection", "features": [ {"type": "Feature", "properties": {"norad_id": 35446, "name": "COSMOS 2251 DEB", "group": "cosmos-2251-debris", "lat": 7.412444352907908, "lon": -65.0591714326531, "alt_km": 671.0588831012847, "timestamp": "2025-12-26T03:50:12.490319+00:00", "meta": {"OBJECT_NAME": "COSMOS 2251 DEB", "OBJECT_ID": "1993-036AKQ", "EPOCH": "2025-12-24T02:17:06.099072", "MEAN_MOTION": 14.54640342, "ECCENTRICITY": 0.00747088, "INCLINATION": 74.0474, "RA_OF_ASC_NODE": 296.7103, "ARG_OF_PERICENTER": 51.6552, "MEAN_ANOMALY": 309.1293, "EPHEMERIS_TYPE": 0, "CLASSIFICATION_TYPE": "U", "NORAD_CAT_ID": 35446, "ELEMENT_SET_NO": 999, "REV_AT_EPOCH": 88173, "BSTAR": 0.00011899718, "MEAN_MOTION_DOT": 4.98e-06, "MEAN_MOTION_DDOT": 0}, "tle": {"line1": "1 35446U 93036AKQ 25358.09520948  .00000498  00000+0  11900-3 0  9997", "line2": "2 35446  74.0474 296.7103 0074708  51.6552 309.1293 14.54640342881735"}}, "geometry": {"type": "Point", "coordinates": [-65.0591714326531, 7.412444352907908]}}, {"type": "Feature", "properties": {"norad_id": 35448, "name": "COSMOS 2251 DEB", "group": "cosmos-2251-debris", "lat": -30.776355756142934, "lon": -106.16324982622092, "alt_km": 709.8479809878127, "timestamp": "2025-12-26T03:50:12.490344+00:00", "meta": {"OBJECT_NAME": "COSMOS 2251 DEB", "OBJECT_ID": "1993-036AKS", "EPOCH": "2025-12-17T15:48:08.057376", "MEAN_MOTION": 14.54306329, "ECCENTRICITY": 0.00121573, "INCLINATION": 73.9037, "RA_OF_ASC_NODE": 80.133, "ARG_OF_PERICENTER": 263.1799, "MEAN_ANOMALY": 96.798, "EPHEMERIS_TYPE": 0, "CLASSIFICATION_TYPE": "U", "NORAD_CAT_ID": 35448, "ELEMENT_SET_NO": 999, "REV_AT_EPOCH": 87406, "BSTAR": 0.00080210225, "MEAN_MOTION_DOT": 3.379e-05, "MEAN_MOTION_DDOT": 0}, "tle": {"line1": "1 35448U 93036AKS 25351.65842659  .00003379  00000+0  80210-3 0  9991", "line2": "2 35448  73.9037  80.1330 0012157 263.1799  96.7980 14.54306329874064"}}, "geometry": {"type": "Point", "coordinates": [-106.16324982622092, -30.776355756142934]}}, {"type": "Feature", "properties": {"norad_id": 35451, "name": "COSMOS 2251 DEB", "group": "cosmos-2251-debris", "lat": -45.46611083432211, "lon": -89.3126900876451, "alt_km": 461.4074277438349, "timestamp": "2025-12-26T03:50:12.490355+00:00", "meta": {"OBJECT_NAME": "COSMOS 2251 DEB", "OBJECT_ID": "1993-036AKV", "EPOCH": "2025-12-22T16:02:09.713472", "MEAN_MOTION": 15.36538479, "ECCENTRICITY": 0.00416089, "INCLINATION": 73.9322, "RA_OF_ASC_NODE": 81.2046, "ARG_OF_PERICENTER": 326.0524, "MEAN_ANOMALY": 33.8019, "EPHEMERIS_TYPE": 0, "CLASSIFICATION_TYPE": "U", "NORAD_CAT_ID": 35451, "ELEMENT_SET_NO": 999, "REV_AT_EPOCH": 67558, "BSTAR": 0.0014760448, "MEAN_MOTION_DOT": 0.00054537, "MEAN_MOTION_DDOT": 0}, "tle": {"line1": "1 35451U 93036AKV 25356.66816798  .00054537  00000+0  14760-2 0  9994", "line2": "2 35451  73.9322  81.2046 0041608 326.0524  33.8019 15.36538479675584"}}, "geometry": {"type": "Point", "coordinates": [-89.3126900876451, -45.46611083432211]}}, {"type": "Feature", "properties": {"norad_id": 35453, "name": "COSMOS 2251 DEB", "group": "cosmos-2251-debris", "lat": -18.18999097946686, "lon": -178.97329930043466, "alt_km": 754.9502052305515, "timestamp": "2025-12-26T03:50:12.490366+00:00", "meta": {"OBJECT_NAME": "COSMOS 2251 DEB", "OBJECT_ID": "1993-036AKX", "EPOCH": "2025-12-16T19:11:22.117056", "MEAN_MOTION": 14.38003213, "ECCENTRICITY": 0.00669431, "INCLINATION": 74.0096, "RA_OF_ASC_NODE": 12.8823, "ARG_OF_PERICENTER": 145.8531, "MEAN_ANOMALY": 214.6957, "EPHEMERIS_TYPE": 0, "CLASSIFICATION_TYPE": "U", "NORAD_CAT_ID": 35453, "ELEMENT_SET_NO": 999, "REV_AT_EPOCH": 86277, "BSTAR": 0.00051941791, "MEAN_MOTION_DOT": 1.586e-05, "MEAN_MOTION_DDOT": 0}, "tle": {"line1": "1 35453U 93036AKX 25350.79956154  .00001586  00000+0  51942-3 0  9995", "line2": "2 35453  74.0096  12.8823 0066943 145.8531 214.6957 14.38003213862776"}}, "geometry": {"type": "Point", "coordinates": [-178.97329930043466, -18.18999097946686]}}, {"type": "Feature", "properties": {"norad_id": 35455, "name": "COSMOS 2251 DEB", "group": "cosmos-2251-debris", "lat": -59.431426526930366, "lon": 118.61323307644348, "alt_km": 775.6116296386872, "timestamp": "2025-12-26T03:50:12.490376+00:00", "meta": {"OBJECT_NAME": "COSMOS 2251 DEB", "OBJECT_ID": "1993-036AKZ", "EPOCH": "2025-12-24T01:01:21.838368", "MEAN_MOTION": 14.49527997, "ECCENTRICITY": 0.0099916, "INCLINATION": 74.0282, "RA_OF_ASC_NODE": 273.5823, "ARG_OF_PERICENTER": 14.4921, "MEAN_ANOMALY": 345.9066, "EPHEMERIS_TYPE": 0, "CLASSIFICATION_TYPE": "U", "NORAD_CAT_ID": 35455, "ELEMENT_SET_NO": 999, "REV_AT_EPOCH": 86707, "BSTAR": 0.001441152, "MEAN_MOTION_DOT": 5.866e-05, "MEAN_MOTION_DDOT": 0}, "tle": {"line1": "1 35455U 93036AKZ 25358.04261387  .00005866  00000+0  14412-2 0  9995", "line2": "2 35455  74.0282 273.5823 0099916  14.4921 345.9066 14.49527997867070"}}, "geometry": {"type": "Point", "coordinates": [118.61323307644348, -59.431426526930366]}}, {"type": "Feature", "properties": {"norad_id": 35456, "name": "COSMOS 2251 DEB", "group": "cosmos-2251-debris", "lat": 43.48010247709909, "lon": -104.50229504655427, "alt_km": 703.2272173947567, "timestamp": "2025-12-26T03:50:12.490386+00:00", "meta": {"OBJECT_NAME": "COSMOS 2251 DEB", "OBJECT_ID": "1993-036ALA", "EPOCH": "2025-12-23T00:04:26.032512", "MEAN_MOTION": 14.69618117, "ECCENTRICITY": 0.00667181, "INCLINATION": 73.9512, "RA_OF_ASC_NODE": 97.4858, "ARG_OF_PERICENTER": 305.2899, "MEAN_ANOMALY": 54.2041, "EPHEMERIS_TYPE": 0, "CLASSIFICATION_TYPE": "U", "NORAD_CAT_ID": 35456, "ELEMENT_SET_NO": 999, "REV_AT_EPOCH": 66026, "BSTAR": 0.0018731177, "MEAN_MOTION_DOT": 0.00011509, "MEAN_MOTION_DDOT": 0}, "tle": {"line1": "1 35456U 93036ALA 25357.00307908  .00011509  00000+0  18731-2 0  9990", "line2": "2 35456  73.9512  97.4858 0066718 305.2899  54.2041 14.69618117660267"}}, "geometry": {"type": "Point", "coordinates": [-104.50229504655427, 43.48010247709909]}}, {"type": "Feature", "properties": {"norad_id": 35459, "name": "COSMOS 2251 DEB", "group": "cosmos-2251-debris", "lat": 45.48648281338009, "lon": 179.4625193252877, "alt_km": 756.5513335342666, "timestamp": "2025-12-26T03:50:12.490397+00:00", "meta": {"OBJECT_NAME": "COSMOS 2251 DEB", "OBJECT_ID": "1993-036ALD", "EPOCH": "2025-12-21T18:23:18.751200", "MEAN_MOTION": 14.37474606, "ECCENTRICITY": 0.0015969, "INCLINATION": 73.8701, "RA_OF_ASC_NODE": 170.5081, "ARG_OF_PERICENTER": 115.4549, "MEAN_ANOMALY": 244.8258, "EPHEMERIS_TYPE": 0, "CLASSIFICATION_TYPE": "U", "NORAD_CAT_ID": 35459, "ELEMENT_SET_NO": 999, "REV_AT_EPOCH": 58491, "BSTAR": 0.00020108543, "MEAN_MOTION_DOT": 5.75e-06, "MEAN_MOTION_DDOT": 0}, "tle": {"line1": "1 35459U 93036ALD 25355.76618925  .00000575  00000+0  20109-3 0  9992", "line2": "2 35459  73.8701 170.5081 0015969 115.4549 244.8258 14.37474606584917"}}, "geometry": {"type": "Point", "coordinates": [179.4625193252877, 45.48648281338009]}}, {"type": "Feature", "properties": {"norad_id": 35462, "name": "COSMOS 2251 DEB", "group": "cosmos-2251-debris", "lat": 71.13801405893793, "lon": -58.770841811536755, "alt_km": 846.0293569905643, "timestamp": "2025-12-26T03:50:12.490407+00:00", "meta": {"OBJECT_NAME": "COSMOS 2251 DEB", "OBJECT_ID": "1993-036ALG", "EPOCH": "2025-12-24T22:54:22.815936", "MEAN_MOTION": 14.29379641, "ECCENTRICITY": 0.0086649, "INCLINATION": 74.0358, "RA_OF_ASC_NODE": 246.4998, "ARG_OF_PERICENTER": 279.062, "MEAN_ANOMALY": 80.0732, "EPHEMERIS_TYPE": 0, "CLASSIFICATION_TYPE": "U", "NORAD_CAT_ID": 35462, "ELEMENT_SET_NO": 999, "REV_AT_EPOCH": 66555, "BSTAR": 0.0013247, "MEAN_MOTION_DOT": 3.491e-05, "MEAN_MOTION_DDOT": 0}, "tle": {"line1": "1 35462U 93036ALG 25358.95443074  .00003491  00000+0  13247-2 0  9995", "line2": "2 35462  74.0358 246.4998 0086649 279.0620  80.0732 14.29379641665553"}}, "geometry": {"type": "Point", "coordinates": [-58.770841811536755, 71.13801405893793]}}, {"type": "Feature", "properties": {"norad_id": 35465, "name": "COSMOS 2251 DEB", "group": "cosmos-2251-debris", "lat": 35.84422564487593, "lon": -19.967336850396215, "alt_km": 786.9464097544387, "timestamp": "2025-12-26T03:50:12.490417+00:00", "meta": {"OBJECT_NAME": "COSMOS 2251 DEB", "OBJECT_ID": "1993-036ALK", "EPOCH": "2025-12-23T05:21:40.851936", "MEAN_MOTION": 14.44343886, "ECCENTRICITY": 0.00645011, "INCLINATION": 73.9972, "RA_OF_ASC_NODE": 177.4731, "ARG_OF_PERICENTER": 335.4735, "MEAN_ANOMALY": 24.3357, "EPHEMERIS_TYPE": 0, "CLASSIFICATION_TYPE": "U", "NORAD_CAT_ID": 35465, "ELEMENT_SET_NO": 999, "REV_AT_EPOCH": 87393, "BSTAR": 0.00030952177, "MEAN_MOTION_DOT": 1.064e-05, "MEAN_MOTION_DDOT": 0}, "tle": {"line1": "1 35465U 93036ALK 25357.22338949  .00001064  00000+0  30952-3 0  9998", "line2": "2 35465  73.9972 177.4731 0064501 335.4735  24.3357 14.44343886873937"}}, "geometry": {"type": "Point", "coordinates": [-19.967336850396215, 35.84422564487593]}}, {"type": "Feature", "properties": {"norad_id": 35469, "name": "COSMOS 2251 DEB", "group": "cosmos-2251-debris", "lat": -60.065422726850386, "lon": -151.5053164015703, "alt_km": 736.0266733041963, "timestamp": "2025-12-26T03:50:12.490428+00:00", "meta": {"OBJECT_NAME": "COSMOS 2251 DEB", "OBJECT_ID": "1993-036ALP", "EPOCH": "2025-12-25T08:30:10.757088", "MEAN_MOTION": 14.49829741, "ECCENTRICITY": 0.0076333, "INCLINATION": 74.0167, "RA_OF_ASC_NODE": 0.1572, "ARG_OF_PERICENTER": 152.3641, "MEAN_ANOMALY": 208.161, "EPHEMERIS_TYPE": 0, "CLASSIFICATION_TYPE": "U", "NORAD_CAT_ID": 35469, "ELEMENT_SET_NO": 999, "REV_AT_EPOCH": 88294, "BSTAR": 9.3047e-05, "MEAN_MOTION_DOT": 3.43e-06, "MEAN_MOTION_DDOT": 0}, "tle": {"line1": "1 35469U 93036ALP 25359.35429117  .00000343  00000+0  93047-4 0  9990", "line2": "2 35469  74.0167   0.1572 0076333 152.3641 208.1610 14.49829741882941"}}, "geometry": {"type": "Point", "coordinates": [-151.5053164015703, -60.065422726850386]}}]}